NORAD_CAT_ID,OBJECT_NAME,OBJECT_TYPE,EPOCH,MEAN_MOTION,ECCENTRICITY,INCLINATION,RA_OF_ASC_NODE,ARG_OF_PERICENTER,MEAN_ANOMALY,BSTAR,MEAN_MOTION_DOT,MEAN_MOTION_DDOT,TLE_LINE0,TLE_LINE1,TLE_LINE2,SEMIMAJOR_AXIS,PERIOD,APOGEE,PERIGEE,DECAYED
50843.0,STARLINK-3325,PAYLOAD,2022-01-11 20:00:01,15.94838398,0.0053479,53.2176,175.5743,179.5786,217.6847,-0.0020005,-0.00916453,0.00026887,0 STARLINK-3325,1 50843U 22001AS  22011.83334491 -.00916453  26887-3 -20005-2 0  9999,2 50843  53.2176 175.5743 0053479 179.5786 217.6847 15.94838398  2004,6666.901999999999,90.291,324.421,253.113,0.0
50843.0,STARLINK-3325,PAYLOAD,2022-01-12 06:00:00,15.940900199999998,0.00502,53.2174,173.4446,181.3256,89.0389,-0.002048,-0.00883885,0.00024999,0 STARLINK-3325,1 50843U 22001AS  22012.25001157 -.00883885  24999-3 -20480-2 0  9997,2 50843  53.2174 173.4446 0050200 181.3256  89.0389 15.94090020  2061,6668.988,90.334,324.331,257.375,0.0
50843.0,STARLINK-3325,PAYLOAD,2022-01-12 14:00:01,15.93524235,0.0046919,53.2177,171.7449,182.9223,201.1176,-0.0022477,-0.00924483,0.00026956,0 STARLINK-3325,1 50843U 22001AS  22012.58334491 -.00924483  26956-3 -22477-2 0  9996,2 50843  53.2177 171.7449 0046919 182.9223 201.1176 15.93524235  1431,6670.566999999999,90.366,323.7290000000001,261.134,0.0
50843.0,STARLINK-3325,PAYLOAD,2022-01-12 16:00:00,15.93352927,0.0046209,53.2175,171.3206,182.9836,319.3755,-0.0021495,-0.00873317,0.00024284,0 STARLINK-3325,1 50843U 22001AS  22012.66667824 -.00873317  24284-3 -21495-2 0  9994,2 50843  53.2175 171.3206 0046209 182.9836 319.3755 15.93352927  2138,6671.045,90.375,323.736,262.084,0.0
50843.0,STARLINK-3325,PAYLOAD,2022-01-12 22:00:00,15.92913815,0.0044196,53.2173,170.0472,185.2586,311.768,-0.0022218,-0.00873217,0.00024174,0 STARLINK-3325,1 50843U 22001AS  22012.91667824 -.00873217  24174-3 -22218-2 0  9993,2 50843  53.2173 170.0472 0044196 185.2586 311.7680 15.92913815  2173,6672.271,90.4,323.624,264.647,0.0
50843.0,STARLINK-3325,PAYLOAD,2022-01-13 14:00:01,15.91765209,0.0038239,53.2174,166.6525,188.8874,171.97799999999995,-0.0025588,-0.00922329,0.00026382,0 STARLINK-3325,1 50843U 22001AS  22013.58334491 -.00922329  26382-3 -25588-2 0  9993,2 50843  53.2174 166.6525 0038239 188.8874 171.9780 15.91765209  2273,6675.48,90.466,322.871,271.819,0.0
50843.0,STARLINK-3325,PAYLOAD,2022-01-13 20:00:01,15.91323272,0.0036326,53.2174,165.3828,190.6804,163.4014,-0.0026238,-0.00917569,0.00026025,0 STARLINK-3325,1 50843U 22001AS  22013.83334491 -.00917569  26025-3 -26238-2 0  9998,2 50843  53.2174 165.3828 0036326 190.6804 163.4014 15.91323272  2315,6676.715999999999,90.491,322.835,274.327,0.0
50843.0,STARLINK-3325,PAYLOAD,2022-01-13 22:00:00,15.91165315,0.0035606,53.2172,164.9591,190.9519,280.7843,-0.0025786,-0.00892302,0.00024708,0 STARLINK-3325,1 50843U 22001AS  22013.91667824 -.00892302  24708-3 -25786-2 0  9996,2 50843  53.2172 164.9591 0035606 190.9519 280.7843 15.91165315  1641,6677.158,90.5,322.797,275.248,0.0
50843.0,STARLINK-3325,PAYLOAD,2022-01-14 06:00:00,15.90568448,0.0032785,53.2175,163.2637,193.6069,28.2977,-0.0026176,-0.00870141,0.00023478,0 STARLINK-3325,1 50843U 22001AS  22014.25001157 -.00870141  23478-3 -26176-2 0  9999,2 50843  53.2175 163.2637 0032785 193.6069  28.2977 15.90568448  2380,6678.828,90.534,322.59,278.797,0.0
50843.0,STARLINK-3325,PAYLOAD,2022-01-14 14:00:01,15.90004671,0.0030065,53.2176,161.5733,196.2502,135.1047,-0.0028615,-0.00916064,0.00025621,0 STARLINK-3325,1 50843U 22001AS  22014.58334491 -.00916064  25621-3 -28615-2 0  9992,2 50843  53.2176 161.5733 0030065 196.2502 135.1047 15.90004671  2434,6680.406999999997,90.566,322.356,282.187,0.0
50843.0,STARLINK-3325,PAYLOAD,2022-01-14 22:00:00,15.89417616,0.0027484,53.2171,159.884,198.9658,241.1434,-0.0029587,-0.00912836,0.00025317,0 STARLINK-3325,1 50843U 22001AS  22014.91667824 -.00912836  25317-3 -29587-2 0  9992,2 50843  53.2171 159.8840 0027484 198.9658 241.1434 15.89417616  1803,6682.052,90.599,322.282,285.552,0.0
50843.0,STARLINK-3325,PAYLOAD,2022-01-15 04:00:00,15.8897802,0.0025116,53.2174,158.6156,202.2019,229.0126,-0.0030430999999999,-0.00912933,0.00025217,0 STARLINK-3325,1 50843U 22001AS  22015.16667824 -.00912933  25217-3 -30431-2 0  9997,2 50843  53.2174 158.6156 0025116 202.2019 229.0126 15.88978020  2537,6683.284000000002,90.624,321.935,288.363,0.0
50843.0,STARLINK-3325,PAYLOAD,2022-01-15 14:00:01,15.88239453,0.0022005,53.2175,156.5071,206.1724,89.4033,-0.003136,-0.00900576,0.00024435,0 STARLINK-3325,1 50843U 22001AS  22015.58335648 -.00900576  24435-3 -31360-2 0  9992,2 50843  53.2175 156.5071 0022005 206.1724  89.4033 15.88239453  2592,6685.356,90.666,321.932,292.51,0.0
50843.0,STARLINK-3325,PAYLOAD,2022-01-15 22:00:01,15.87665958,0.0019532,53.2171,154.8217,210.7782,191.4351,-0.0033314,-0.00925245,0.0002552,0 STARLINK-3325,1 50843U 22001AS  22015.91668981 -.00925245  25520-3 -33314-2 0  9995,2 50843  53.2171 154.8217 0019532 210.7782 191.4351 15.87665958  2653,6686.965999999999,90.699,321.892,295.77,0.0
50843.0,STARLINK-3325,PAYLOAD,2022-01-16 06:00:00,15.87061444,0.0016586,53.2172,153.1354,216.6947,291.3987,-0.0033068,-0.00887532,0.00023541,0 STARLINK-3325,1 50843U 22001AS  22016.25001157 -.00887532  23541-3 -33068-2 0  9992,2 50843  53.2172 153.1354 0016586 216.6947 291.3987 15.87061444  2703,6688.663000000001,90.734,321.622,299.435,0.0
50843.0,STARLINK-3325,PAYLOAD,2022-01-16 14:00:01,15.86472826,0.001439,53.2173,151.4541,223.68400000000003,29.644,-0.0033933,-0.00809017,0.0,0 STARLINK-3325,1 50843U 22001AS  22016.58334491 -.00809017  00000-0 -33933-2 0  9993,2 50843  53.2173 151.4541 0014390 223.6840  29.6440 15.86472826  2079,6690.318,90.767,321.81,302.555,0.0
50843.0,STARLINK-3325,PAYLOAD,2022-01-16 22:00:00,15.85906589,0.0012599,53.217,149.7731,232.6849,125.166,-0.0036523,-0.00841539,0.0,0 STARLINK-3325,1 50843U 22001AS  22016.91667824 -.00841539  00000-0 -36523-2 0  9992,2 50843  53.2170 149.7731 0012599 232.6849 125.1660 15.85906589  2124,6691.91,90.8,322.206,305.344,0.0
50843.0,STARLINK-3325,PAYLOAD,2022-01-17 06:00:00,15.85313353,0.0010503,53.2173,148.0908,245.014,216.6677,-0.0037128,-0.00829808,0.0,0 STARLINK-3325,1 50843U 22001AS  22017.25001157 -.00829808  00000-0 -37128-2 0  9998,2 50843  53.2173 148.0908 0010503 245.0140 216.6677 15.85313353  2866,6693.58,90.834,322.475,308.414,0.0
50843.0,STARLINK-3325,PAYLOAD,2022-01-17 14:00:01,15.84713563,0.0009163,53.2175,146.414,258.6367,306.171,-0.0037021,-0.00804674,0.0,0 STARLINK-3325,1 50843U 22001AS  22017.58334491 -.00804674  00000-0 -37021-2 0  9990,2 50843  53.2175 146.4140 0009163 258.6367 306.1710 15.84713563  2239,6695.268,90.868,323.268,310.999,0.0
50843.0,STARLINK-3325,PAYLOAD,2022-01-17 22:00:00,15.84131703,0.0007627999999999,53.2171,144.737,267.366,39.8579,-0.0038379,-0.008094,0.0,0 STARLINK-3325,1 50843U 22001AS  22017.91667824 -.00809400  00000-0 -38379-2 0  9995,2 50843  53.2171 144.7370 0007628 267.3660  39.8579 15.84131703  2286,6696.908,90.902,323.881,313.664,0.0
50843.0,STARLINK-3325,PAYLOAD,2022-01-18 14:00:01,15.82976325,0.000348,53.2172,141.387,236.1075,273.8356,-0.0042286,-0.0083839,0.0,0 STARLINK-3325,1 50843U 22001AS  22018.58334491 -.00838390  00000-0 -42286-2 0  9992,2 50843  53.2172 141.3870 0003480 236.1075 273.8356 15.82976325  3077,6700.166,90.968,324.363,319.699,0.0
50843.0,STARLINK-3325,PAYLOAD,2022-01-18 22:00:00,15.82375713,0.000335,53.2172,139.714,245.6323,4.622,-0.0042019,-0.00812129,0.0,0 STARLINK-3325,1 50843U 22001AS  22018.91667824 -.00812129  00000-0 -42019-2 0  9994,2 50843  53.2172 139.7140 0003350 245.6323   4.6220 15.82375713  2449,6701.861,91.002,325.971,321.481,0.0
50843.0,STARLINK-3325,PAYLOAD,2022-01-19 06:00:02,15.81706519,0.0001426,53.2165,138.0404,316.4972,33.4747,-0.0037454,-0.00709254,0.0,0 STARLINK-3325,1 50843U 22001AS  22019.25002315 -.00709254  00000-0 -37454-2 0  9991,2 50843  53.2165 138.0404 0001426 316.4972  33.4747 15.81706519  3171,6703.751,91.041,326.572,324.661,0.0
50843.0,STARLINK-3325,PAYLOAD,2022-01-19 14:00:01,15.81144816,0.0001015,53.2168,136.3726,49.5845,39.2033,-0.0040176,-0.00738461,0.0,0 STARLINK-3325,1 50843U 22001AS  22019.58334491 -.00738461  00000-0 -40176-2 0  9997,2 50843  53.2168 136.3726 0001015  49.5845  39.2033 15.81144816  2558,6705.339,91.073,327.885,326.523,0.0
50843.0,STARLINK-3325,PAYLOAD,2022-01-19 22:00:00,15.80625418,0.0001172,53.2172,134.7042,66.3238,120.6219,-0.0046397,-0.00824168,0.0,0 STARLINK-3325,1 50843U 22001AS  22019.91667824 -.00824168  00000-0 -46397-2 0  9994,2 50843  53.2172 134.7042 0001172  66.3238 120.6219 15.80625418  3286,6706.808000000001,91.103,329.459,327.88699999999994,0.0
50843.0,STARLINK-3325,PAYLOAD,2022-01-20 14:00:01,15.7945401,0.0001327,53.2174,131.372,43.7683,337.4525,-0.0048958,-0.00823986,0.0,0 STARLINK-3325,1 50843U 22001AS  22020.58334491 -.00823986  00000-0 -48958-2 0  9992,2 50843  53.2174 131.3720 0001327  43.7683 337.4525 15.79454010  2710,6710.124,91.171,332.879,331.098,0.0
50843.0,STARLINK-3325,PAYLOAD,2022-01-20 22:00:00,15.78867328,0.0001174,53.2173,129.7072,58.6866,58.6166,-0.0050186,-0.00822402,0.0,0 STARLINK-3325,1 50843U 22001AS  22020.91667824 -.00822402  00000-0 -50186-2 0  9996,2 50843  53.2173 129.7072 0001174  58.6866  58.6166 15.78867328  3441,6711.786,91.205,334.439,332.86300000000006,0.0
50843.0,STARLINK-3325,PAYLOAD,2022-01-21 14:00:01,15.77695626,0.0001523,53.2175,126.384,38.0509,269.3032,-0.0052936,-0.00822681,0.0,0 STARLINK-3325,1 50843U 22001AS  22021.58334491 -.00822681  00000-0 -52936-2 0  9995,2 50843  53.2175 126.3840 0001523  38.0509 269.3032 15.77695626  2871,6715.108,91.272,337.996,335.951,0.0
50843.0,STARLINK-3325,PAYLOAD,2022-01-21 20:00:01,15.77255986,0.0001194,53.2172,125.1388,56.589,231.308,-0.0053872,-0.00820903,0.0,0 STARLINK-3325,1 50843U 22001AS  22021.83334491 -.00820903  00000-0 -53872-2 0  9998,2 50843  53.2172 125.1388 0001194  56.5890 231.3080 15.77255986  3586,6716.356,91.298,339.023,337.4190000000001,0.0
